      2.10          N: GNSS NAV DATA                        RINEX VERSION / TYPE
fic2rin                                 01/04/2022 00:17:04 PGM / RUN BY / DATE
                                                            END OF HEADER
 4 22  1  3 18  0  0.0-1.965342089534e-04 1.591615728103e-12 0.000000000000e+00
    1.800000000000e+01-9.968750000000e+00 4.599120143243e-09-1.834525195772e+00
   -6.798654794693e-07 1.634995103814e-03 9.661540389061e-06 5.153660915375e+03
    1.512000000000e+05 6.519258022308e-08 9.572060933731e-01-2.980232238770e-08
    9.607994195524e-01 1.958437500000e+02-3.115628567007e+00-7.808896700463e-09
    7.739608100029e-10 1.000000000000e+00 2.191000000000e+03 0.000000000000e+00
    2.400000000000e+00 0.000000000000e+00-4.190951585770e-09 1.800000000000e+01
    1.440000000000e+05 4.000000000000e+00
 2 22  1  3 18  0  0.0-6.476496346295e-04-1.023181539495e-12 0.000000000000e+00
    7.700000000000e+01-2.253125000000e+01 4.444828002070e-09 2.785273298727e+00
   -1.048669219017e-06 2.065203408711e-02-1.767650246620e-06 5.153672649384e+03
    1.512000000000e+05 3.054738044739e-07-1.247390965378e+00-7.078051567078e-08
    9.646975564169e-01 4.133125000000e+02-1.463114938301e+00-8.133195923113e-09
   -1.171477368163e-10 1.000000000000e+00 2.191000000000e+03 0.000000000000e+00
    2.400000000000e+00 0.000000000000e+00-1.769512891769e-08 7.700000000000e+01
    1.440000000000e+05 4.000000000000e+00
 8 22  1  3 18  0  0.0-5.065649747849e-05-1.477928890381e-12 0.000000000000e+00
    8.900000000000e+01 1.736250000000e+02 4.154458764169e-09-1.357099553101e+00
    8.936971426010e-06 7.064247969538e-03 6.524845957756e-06 5.153706165314e+03
    1.512000000000e+05-4.656612873077e-08-2.238457298331e+00-1.471489667892e-07
    9.652624753994e-01 2.577812500000e+02 7.255642990083e-02-7.987118409827e-09
    2.635824078367e-10 1.000000000000e+00 2.191000000000e+03 0.000000000000e+00
    2.400000000000e+00 0.000000000000e+00 5.122274160385e-09 8.900000000000e+01
    1.440000000000e+05 4.000000000000e+00
 7 22  1  3 18  0  0.0 2.981042489409e-04 3.979039320257e-12 0.000000000000e+00
    9.700000000000e+01-7.687500000000e+00 5.360937590283e-09 1.958850529484e+00
   -5.774199962616e-07 1.539074990433e-02 5.355104804039e-06 5.153693786621e+03
    1.512000000000e+05-3.669410943985e-07 1.976954111457e+00-2.365559339523e-07
    9.505980426698e-01 2.761875000000e+02-2.297520895390e+00-8.260344076487e-09
   -1.310768884500e-10 1.000000000000e+00 2.191000000000e+03 0.000000000000e+00
    2.400000000000e+00 0.000000000000e+00-1.117587089539e-08 9.700000000000e+01
    1.440000000000e+05 4.000000000000e+00
 6 22  1  3 18  0  0.0 1.605963334441e-04 1.068656274583e-11 0.000000000000e+00
    4.900000000000e+01-4.128125000000e+01 4.114814255673e-09 2.997094479781e+00
   -2.089887857437e-06 2.578124986030e-03-8.028000593185e-07 5.153645862579e+03
    1.512000000000e+05 5.960464477539e-08-1.167241771208e+00 1.117587089539e-08
    9.857452039701e-01 4.088437500000e+02-1.013527844017e+00-8.214627886510e-09
   -7.214586230761e-11 1.000000000000e+00 2.191000000000e+03 0.000000000000e+00
    2.400000000000e+00 0.000000000000e+00 4.190951585770e-09 4.900000000000e+01
    1.440000000000e+05 4.000000000000e+00
 9 22  1  3 18  0  0.0-3.589475527406e-04 1.023181539495e-12 0.000000000000e+00
    1.060000000000e+02-1.156250000000e+01 4.743054710124e-09-1.037482824741e+00
   -6.221234798431e-07 2.353866817430e-03 1.019239425659e-05 5.153643692017e+03
    1.512000000000e+05 9.313225746155e-09 9.045859219203e-01-1.862645149231e-09
    9.538202557908e-01 1.851250000000e+02 1.857055243085e+00-7.906043604165e-09
    7.568172387615e-10 1.000000000000e+00 2.191000000000e+03 0.000000000000e+00
    2.400000000000e+00 0.000000000000e+00 1.396983861923e-09 1.060000000000e+02
    1.440000000000e+05 4.000000000000e+00
21 22  1  3 18  0  0.0 1.553106121719e-04 9.094947017729e-13 0.000000000000e+00
    2.800000000000e+01-1.884375000000e+01 4.906990110120e-09-1.303783603180e+00
   -6.332993507385e-07 2.445941849146e-02-4.600733518600e-07 5.153595159531e+03
    1.512000000000e+05-5.085021257401e-07-1.248746221464e+00 7.078051567078e-08
    9.589306338700e-01 3.966250000000e+02-1.033645615489e+00-8.925728935294e-09
    1.696499237431e-10 1.000000000000e+00 2.191000000000e+03 0.000000000000e+00
    2.400000000000e+00 0.000000000000e+00-1.024454832077e-08 2.800000000000e+01
    1.440000000000e+05 4.000000000000e+00
12 22  1  3 18  0  0.0-1.504411920905e-04-5.684341886081e-12 0.000000000000e+00
    6.100000000000e+01 5.715625000000e+01 3.970522531058e-09 1.291085623470e+00
    2.859160304070e-06 8.518017944880e-03 1.191720366478e-05 5.153633695602e+03
    1.512000000000e+05-1.508742570877e-07 3.089089105966e+00-4.470348358154e-08
    9.712768300586e-01 1.572187500000e+02 1.232733480046e+00-7.638889618986e-09
   -6.268118235141e-10 1.000000000000e+00 2.191000000000e+03 0.000000000000e+00
    2.400000000000e+00 0.000000000000e+00-1.257285475731e-08 6.100000000000e+01
    1.440000000000e+05 4.000000000000e+00
31 22  1  3 18  0  0.0-1.582042314112e-04-1.818989403546e-12 0.000000000000e+00
    8.800000000000e+01-7.406250000000e+00 5.267719421658e-09 1.507062761682e+00
   -1.154839992523e-07 1.046678971034e-02 5.636364221573e-06 5.153653778076e+03
    1.512000000000e+05-4.656612873077e-08 1.994885838591e+00 1.676380634308e-07
    9.548562534128e-01 2.703437500000e+02 3.620740942279e-01-8.242129032043e-09
   -3.768014095769e-10 1.000000000000e+00 2.191000000000e+03 0.000000000000e+00
    2.400000000000e+00 0.000000000000e+00-1.303851604462e-08 8.800000000000e+01
    1.440000000000e+05 4.000000000000e+00
16 22  1  3 18  0  0.0-4.503298550844e-04-5.684341886081e-12 0.000000000000e+00
    5.500000000000e+01 6.690625000000e+01 4.054811756328e-09-5.673873188964e-01
    3.488734364510e-06 1.258555403911e-02 1.175142824650e-05 5.153585163116e+03
    1.512000000000e+05 6.332993507385e-08 3.107723781330e+00 1.583248376846e-07
    9.712515347421e-01 1.585000000000e+02 6.917234913685e-01-7.739250942295e-09
   -6.950289507456e-10 1.000000000000e+00 2.191000000000e+03 0.000000000000e+00
    2.400000000000e+00 0.000000000000e+00-1.024454832077e-08 5.500000000000e+01
    1.440000000000e+05 4.000000000000e+00
29 22  1  3 18  0  0.0-4.626023583114e-04-5.002220859751e-12 0.000000000000e+00
    6.500000000000e+01 1.578750000000e+02 3.944807174196e-09-1.335723792040e+00
    8.152797818184e-06 1.754476339556e-03 4.615634679794e-06 5.153772060394e+03
    1.512000000000e+05 3.725290298462e-09-2.144263230405e+00 7.450580596924e-08
    9.822402848562e-01 3.031875000000e+02 2.302607186523e+00-7.925330121811e-09
    2.500104139373e-10 1.000000000000e+00 2.191000000000e+03 0.000000000000e+00
    2.400000000000e+00 0.000000000000e+00-1.024454832077e-08 6.500000000000e+01
    1.440000000000e+05 4.000000000000e+00
15 22  1  3 18  0  0.0-9.427126497030e-05 2.842170943040e-12 0.000000000000e+00
    8.300000000000e+01-3.656250000000e+00 5.121284750638e-09-2.375737903934e+00
   -4.749745130539e-07 1.390662265476e-02 1.036748290062e-05 5.153720533371e+03
    1.512000000000e+05 1.192092895508e-07 7.996519345414e-01-8.940696716309e-08
    9.297348720121e-01 1.573750000000e+02 1.068366783822e+00-7.923901490874e-09
    8.693219250333e-10 1.000000000000e+00 2.191000000000e+03 0.000000000000e+00
    2.400000000000e+00 0.000000000000e+00-1.071020960808e-08 8.300000000000e+01
    1.440000000000e+05 4.000000000000e+00
32 22  1  3 18  0  0.0-4.484970122576e-05-5.798028723802e-12 0.000000000000e+00
    4.600000000000e+01-7.343750000000e+00 4.719482299667e-09-7.438375589972e-01
   -2.663582563400e-07 5.370848113671e-03 1.006200909615e-05 5.153754085541e+03
    1.512000000000e+05 3.352761268616e-08 9.156009489689e-01 1.695007085800e-07
    9.576839833591e-01 1.839375000000e+02-2.381012586731e+00-7.907829392835e-09
    7.771752296107e-10 1.000000000000e+00 2.191000000000e+03 0.000000000000e+00
    2.400000000000e+00 0.000000000000e+00 4.656612873077e-10 4.600000000000e+01
    1.440000000000e+05 4.000000000000e+00
30 22  1  3 18  0  0.0-5.041616968811e-04-2.728484105319e-12 0.000000000000e+00
    5.100000000000e+01-9.343750000000e+00 5.769883195938e-09 1.962900899067e+00
   -4.302710294724e-07 5.384879303165e-03 4.962086677551e-06 5.153584642410e+03
    1.512000000000e+05-1.415610313416e-07 1.990759545023e+00 1.247972249985e-07
    9.357790277755e-01 2.739062500000e+02-2.753967874410e+00-8.547141737046e-09
   -1.710785546799e-10 1.000000000000e+00 2.191000000000e+03 0.000000000000e+00
    2.400000000000e+00 0.000000000000e+00 3.725290298462e-09 5.100000000000e+01
    1.440000000000e+05 4.000000000000e+00
27 22  1  3 18  0  0.0 4.625460132957e-05 2.455635694787e-11 0.000000000000e+00
    7.800000000000e+01 1.803437500000e+02 4.000166622996e-09-1.439641958363e+00
    9.300187230110e-06 9.948020335287e-03 5.973502993584e-06 5.153652538300e+03
    1.512000000000e+05 2.123415470123e-07-2.219377579882e+00-1.471489667892e-07
    9.739271212081e-01 2.722500000000e+02 6.279518406461e-01-7.887471401986e-09
    2.253665302777e-10 1.000000000000e+00 2.191000000000e+03 0.000000000000e+00
    2.400000000000e+00 0.000000000000e+00 1.862645149231e-09 7.800000000000e+01
    1.440000000000e+05 4.000000000000e+00
19 22  1  3 18  0  0.0 1.007928512990e-04 5.002220859751e-12 0.000000000000e+00
    7.900000000000e+01 1.474062500000e+02 4.082670059595e-09 9.400108708830e-01
    7.431954145432e-06 8.931119577028e-03 5.120411515236e-06 5.153678146362e+03
    1.512000000000e+05-1.862645149231e-09-2.112248919874e+00-1.825392246246e-07
    9.789503839786e-01 2.925625000000e+02 1.991340057249e+00-8.098551622896e-09
    1.785788670980e-10 1.000000000000e+00 2.191000000000e+03 0.000000000000e+00
    2.400000000000e+00 0.000000000000e+00-1.583248376846e-08 7.900000000000e+01
    1.440000000000e+05 4.000000000000e+00
